<?xml version="1.0" encoding="UTF-8"?><gpx creator="Wikiloc - https://www.wikiloc.com" version="1.1" xmlns="http://www.topografix.com/GPX/1/1" xmlns:xsi="http://www.w3.org/2001/XMLSchema-instance" xsi:schemaLocation="http://www.topografix.com/GPX/1/1 http://www.topografix.com/GPX/1/1/gpx.xsd"><metadata><name>Wikiloc - Rota Raquel Ramão</name><author><name>Renato Souza 239377</name><link href="https://www.wikiloc.com/wikiloc/user.do?id=21497337"><text>Renato Souza 239377 on Wikiloc</text></link></author><link href="https://www.wikiloc.com/car-trails/rota-raquel-ramao-262850990"><text>Rota Raquel Ramão on Wikiloc</text></link><time>2026-05-05T10:47:00.423Z</time></metadata><trk><name>Rota Raquel Ramão - Wikiloc</name><cmt></cmt><desc></desc><trkseg><trkpt lat="-16.094169" lon="-57.675948"><ele>131.166</ele><time>2026-05-05T10:10:08.291Z</time></trkpt><trkpt lat="-16.094113" lon="-57.675943"><ele>131.129</ele><time>2026-05-05T10:10:16.045Z</time></trkpt><trkpt lat="-16.093999" lon="-57.675906"><ele>130.921</ele><time>2026-05-05T10:10:51.726Z</time></trkpt><trkpt lat="-16.094041" lon="-57.675933"><ele>131.009</ele><time>2026-05-05T10:10:57.045Z</time></trkpt><trkpt lat="-16.094092" lon="-57.675915"><ele>131.038</ele><time>2026-05-05T10:11:20.046Z</time></trkpt><trkpt lat="-16.094138" lon="-57.675903"><ele>131.152</ele><time>2026-05-05T10:11:28.049Z</time></trkpt><trkpt lat="-16.094132" lon="-57.675959"><ele>131.168</ele><time>2026-05-05T10:11:36.048Z</time></trkpt><trkpt lat="-16.094117" lon="-57.676013"><ele>131.294</ele><time>2026-05-05T10:11:38.047Z</time></trkpt><trkpt lat="-16.091522" lon="-57.676201"><ele>129.071</ele><time>2026-05-05T10:12:41.046Z</time></trkpt><trkpt lat="-16.091371" lon="-57.676228"><ele>129.026</ele><time>2026-05-05T10:12:43.045Z</time></trkpt><trkpt lat="-16.091216" lon="-57.676253"><ele>129.045</ele><time>2026-05-05T10:12:45.046Z</time></trkpt><trkpt lat="-16.091053" lon="-57.676281"><ele>129.035</ele><time>2026-05-05T10:12:47.046Z</time></trkpt><trkpt lat="-16.090892" lon="-57.676311"><ele>129.036</ele><time>2026-05-05T10:12:49.046Z</time></trkpt><trkpt lat="-16.090730" lon="-57.676344"><ele>129.012</ele><time>2026-05-05T10:12:51.046Z</time></trkpt><trkpt lat="-16.090569" lon="-57.676370"><ele>129.032</ele><time>2026-05-05T10:12:53.046Z</time></trkpt><trkpt lat="-16.090405" lon="-57.676392"><ele>129.005</ele><time>2026-05-05T10:12:55.048Z</time></trkpt><trkpt lat="-16.090249" lon="-57.676417"><ele>129.009</ele><time>2026-05-05T10:12:57.049Z</time></trkpt><trkpt lat="-16.090131" lon="-57.676435"><ele>129.013</ele><time>2026-05-05T10:12:59.046Z</time></trkpt><trkpt lat="-16.090054" lon="-57.676462"><ele>129.077</ele><time>2026-05-05T10:13:01.046Z</time></trkpt><trkpt lat="-16.090013" lon="-57.676524"><ele>129.013</ele><time>2026-05-05T10:13:03.047Z</time></trkpt><trkpt lat="-16.090018" lon="-57.676646"><ele>129.059</ele><time>2026-05-05T10:13:05.048Z</time></trkpt><trkpt lat="-16.090050" lon="-57.676809"><ele>129.076</ele><time>2026-05-05T10:13:07.048Z</time></trkpt><trkpt lat="-16.090082" lon="-57.676982"><ele>129.081</ele><time>2026-05-05T10:13:09.048Z</time></trkpt><trkpt lat="-16.090114" lon="-57.677150"><ele>129.130</ele><time>2026-05-05T10:13:11.048Z</time></trkpt><trkpt lat="-16.090134" lon="-57.677307"><ele>129.190</ele><time>2026-05-05T10:13:13.050Z</time></trkpt><trkpt lat="-16.087722" lon="-57.696076"><ele>119.841</ele><time>2026-05-05T10:18:32.046Z</time></trkpt><trkpt lat="-16.087821" lon="-57.696113"><ele>119.812</ele><time>2026-05-05T10:18:34.047Z</time></trkpt><trkpt lat="-16.087937" lon="-57.696151"><ele>119.832</ele><time>2026-05-05T10:18:36.046Z</time></trkpt><trkpt lat="-16.088070" lon="-57.696182"><ele>119.905</ele><time>2026-05-05T10:18:38.046Z</time></trkpt><trkpt lat="-16.088203" lon="-57.696216"><ele>119.909</ele><time>2026-05-05T10:18:40.048Z</time></trkpt><trkpt lat="-16.088338" lon="-57.696248"><ele>120.043</ele><time>2026-05-05T10:18:42.046Z</time></trkpt><trkpt lat="-16.088458" lon="-57.696273"><ele>120.097</ele><time>2026-05-05T10:18:45.045Z</time></trkpt><trkpt lat="-16.088606" lon="-57.696310"><ele>120.023</ele><time>2026-05-05T10:18:47.048Z</time></trkpt><trkpt lat="-16.088752" lon="-57.696354"><ele>120.079</ele><time>2026-05-05T10:18:49.045Z</time></trkpt><trkpt lat="-16.088915" lon="-57.696402"><ele>120.046</ele><time>2026-05-05T10:18:51.047Z</time></trkpt><trkpt lat="-16.089073" lon="-57.696450"><ele>120.011</ele><time>2026-05-05T10:18:53.047Z</time></trkpt><trkpt lat="-16.089224" lon="-57.696484"><ele>120.160</ele><time>2026-05-05T10:18:55.047Z</time></trkpt><trkpt lat="-16.089372" lon="-57.696512"><ele>120.290</ele><time>2026-05-05T10:18:57.048Z</time></trkpt><trkpt lat="-16.089512" lon="-57.696541"><ele>120.471</ele><time>2026-05-05T10:18:59.049Z</time></trkpt><trkpt lat="-16.089650" lon="-57.696577"><ele>120.571</ele><time>2026-05-05T10:19:01.049Z</time></trkpt><trkpt lat="-16.089785" lon="-57.696615"><ele>120.741</ele><time>2026-05-05T10:19:03.047Z</time></trkpt><trkpt lat="-16.089920" lon="-57.696657"><ele>120.915</ele><time>2026-05-05T10:19:05.045Z</time></trkpt><trkpt lat="-16.090063" lon="-57.696697"><ele>121.009</ele><time>2026-05-05T10:19:07.046Z</time></trkpt><trkpt lat="-16.090211" lon="-57.696735"><ele>121.129</ele><time>2026-05-05T10:19:09.046Z</time></trkpt><trkpt lat="-16.090363" lon="-57.696772"><ele>121.183</ele><time>2026-05-05T10:19:11.045Z</time></trkpt><trkpt lat="-16.090494" lon="-57.696798"><ele>121.269</ele><time>2026-05-05T10:19:13.046Z</time></trkpt><trkpt lat="-16.090616" lon="-57.696803"><ele>121.365</ele><time>2026-05-05T10:19:15.046Z</time></trkpt><trkpt lat="-16.090748" lon="-57.696809"><ele>121.422</ele><time>2026-05-05T10:19:17.046Z</time></trkpt><trkpt lat="-16.090878" lon="-57.696818"><ele>121.457</ele><time>2026-05-05T10:19:19.046Z</time></trkpt><trkpt lat="-16.090986" lon="-57.696810"><ele>121.466</ele><time>2026-05-05T10:19:21.046Z</time></trkpt><trkpt lat="-16.091069" lon="-57.696796"><ele>121.376</ele><time>2026-05-05T10:19:23.045Z</time></trkpt><trkpt lat="-16.091125" lon="-57.696781"><ele>121.397</ele><time>2026-05-05T10:19:25.045Z</time></trkpt><trkpt lat="-16.091182" lon="-57.696766"><ele>121.378</ele><time>2026-05-05T10:19:28.048Z</time></trkpt><trkpt lat="-16.091238" lon="-57.696745"><ele>121.333</ele><time>2026-05-05T10:19:31.046Z</time></trkpt><trkpt lat="-16.091333" lon="-57.696732"><ele>121.326</ele><time>2026-05-05T10:19:33.047Z</time></trkpt><trkpt lat="-16.091417" lon="-57.696712"><ele>121.209</ele><time>2026-05-05T10:19:35.046Z</time></trkpt><trkpt lat="-16.091531" lon="-57.696692"><ele>121.119</ele><time>2026-05-05T10:19:37.045Z</time></trkpt><trkpt lat="-16.091671" lon="-57.696670"><ele>121.033</ele><time>2026-05-05T10:19:39.046Z</time></trkpt><trkpt lat="-16.091795" lon="-57.696648"><ele>120.829</ele><time>2026-05-05T10:19:41.048Z</time></trkpt><trkpt lat="-16.091901" lon="-57.696625"><ele>120.725</ele><time>2026-05-05T10:19:43.048Z</time></trkpt><trkpt lat="-16.091957" lon="-57.696621"><ele>120.652</ele><time>2026-05-05T10:19:45.047Z</time></trkpt><trkpt lat="-16.092005" lon="-57.696616"><ele>120.557</ele><time>2026-05-05T10:19:47.048Z</time></trkpt><trkpt lat="-16.092074" lon="-57.696608"><ele>120.426</ele><time>2026-05-05T10:19:49.046Z</time></trkpt><trkpt lat="-16.092179" lon="-57.696598"><ele>120.386</ele><time>2026-05-05T10:19:51.047Z</time></trkpt><trkpt lat="-16.092311" lon="-57.696580"><ele>120.177</ele><time>2026-05-05T10:19:53.046Z</time></trkpt><trkpt lat="-16.092479" lon="-57.696556"><ele>119.986</ele><time>2026-05-05T10:19:55.046Z</time></trkpt><trkpt lat="-16.092664" lon="-57.696532"><ele>119.960</ele><time>2026-05-05T10:19:57.046Z</time></trkpt><trkpt lat="-16.092872" lon="-57.696504"><ele>119.926</ele><time>2026-05-05T10:19:59.046Z</time></trkpt><trkpt lat="-16.093087" lon="-57.696494"><ele>119.909</ele><time>2026-05-05T10:20:01.048Z</time></trkpt><trkpt lat="-16.093284" lon="-57.696505"><ele>120.070</ele><time>2026-05-05T10:20:03.046Z</time></trkpt><trkpt lat="-16.093470" lon="-57.696525"><ele>120.044</ele><time>2026-05-05T10:20:05.048Z</time></trkpt><trkpt lat="-16.093643" lon="-57.696533"><ele>120.030</ele><time>2026-05-05T10:20:07.046Z</time></trkpt><trkpt lat="-16.093861" lon="-57.696256"><ele>120.046</ele><time>2026-05-05T10:20:20.473Z</time></trkpt><trkpt lat="-16.093976" lon="-57.696125"><ele>120.033</ele><time>2026-05-05T10:20:22.474Z</time></trkpt><trkpt lat="-16.094046" lon="-57.696002"><ele>120.048</ele><time>2026-05-05T10:20:24.475Z</time></trkpt><trkpt lat="-16.094230" lon="-57.695766"><ele>120.087</ele><time>2026-05-05T10:20:26.473Z</time></trkpt><trkpt lat="-16.094319" lon="-57.695705"><ele>120.037</ele><time>2026-05-05T10:20:28.475Z</time></trkpt><trkpt lat="-16.094421" lon="-57.695586"><ele>120.058</ele><time>2026-05-05T10:20:30.477Z</time></trkpt><trkpt lat="-16.094510" lon="-57.695755"><ele>120.049</ele><time>2026-05-05T10:20:33.047Z</time></trkpt><trkpt lat="-16.094596" lon="-57.695856"><ele>120.002</ele><time>2026-05-05T10:20:35.046Z</time></trkpt><trkpt lat="-16.094690" lon="-57.695932"><ele>120.122</ele><time>2026-05-05T10:20:37.048Z</time></trkpt><trkpt lat="-16.094723" lon="-57.696021"><ele>120.209</ele><time>2026-05-05T10:20:39.045Z</time></trkpt><trkpt lat="-16.094843" lon="-57.696066"><ele>120.226</ele><time>2026-05-05T10:20:41.045Z</time></trkpt><trkpt lat="-16.094939" lon="-57.696121"><ele>120.310</ele><time>2026-05-05T10:20:43.046Z</time></trkpt><trkpt lat="-16.095029" lon="-57.696164"><ele>120.446</ele><time>2026-05-05T10:20:45.046Z</time></trkpt><trkpt lat="-16.095111" lon="-57.696197"><ele>120.392</ele><time>2026-05-05T10:20:47.048Z</time></trkpt><trkpt lat="-16.095182" lon="-57.696229"><ele>120.319</ele><time>2026-05-05T10:20:49.045Z</time></trkpt><trkpt lat="-16.095246" lon="-57.696255"><ele>120.274</ele><time>2026-05-05T10:20:51.046Z</time></trkpt><trkpt lat="-16.095309" lon="-57.696278"><ele>120.283</ele><time>2026-05-05T10:20:53.046Z</time></trkpt><trkpt lat="-16.095358" lon="-57.696303"><ele>120.173</ele><time>2026-05-05T10:20:55.048Z</time></trkpt><trkpt lat="-16.095388" lon="-57.696341"><ele>120.114</ele><time>2026-05-05T10:20:59.046Z</time></trkpt><trkpt lat="-16.095377" lon="-57.696393"><ele>120.271</ele><time>2026-05-05T10:21:01.046Z</time></trkpt><trkpt lat="-16.095344" lon="-57.696458"><ele>120.341</ele><time>2026-05-05T10:21:03.046Z</time></trkpt><trkpt lat="-16.095315" lon="-57.696519"><ele>120.415</ele><time>2026-05-05T10:21:05.045Z</time></trkpt><trkpt lat="-16.095292" lon="-57.696579"><ele>120.509</ele><time>2026-05-05T10:21:07.047Z</time></trkpt><trkpt lat="-16.095269" lon="-57.696641"><ele>120.639</ele><time>2026-05-05T10:21:09.049Z</time></trkpt><trkpt lat="-16.095248" lon="-57.696705"><ele>120.663</ele><time>2026-05-05T10:21:11.046Z</time></trkpt><trkpt lat="-16.095230" lon="-57.696754"><ele>120.529</ele><time>2026-05-05T10:21:13.047Z</time></trkpt><trkpt lat="-16.095179" lon="-57.696796"><ele>120.545</ele><time>2026-05-05T10:21:16.046Z</time></trkpt><trkpt lat="-16.095116" lon="-57.696793"><ele>120.652</ele><time>2026-05-05T10:21:18.047Z</time></trkpt><trkpt lat="-16.095047" lon="-57.696773"><ele>120.777</ele><time>2026-05-05T10:21:20.048Z</time></trkpt><trkpt lat="-16.094982" lon="-57.696753"><ele>120.856</ele><time>2026-05-05T10:21:22.047Z</time></trkpt><trkpt lat="-16.094925" lon="-57.696736"><ele>120.886</ele><time>2026-05-05T10:21:24.046Z</time></trkpt><trkpt lat="-16.094877" lon="-57.696726"><ele>120.757</ele><time>2026-05-05T10:21:26.047Z</time></trkpt><trkpt lat="-16.094817" lon="-57.696702"><ele>120.776</ele><time>2026-05-05T10:21:29.046Z</time></trkpt><trkpt lat="-16.094763" lon="-57.696687"><ele>120.790</ele><time>2026-05-05T10:21:32.047Z</time></trkpt><trkpt lat="-16.094712" lon="-57.696674"><ele>120.619</ele><time>2026-05-05T10:21:36.047Z</time></trkpt><trkpt lat="-16.094747" lon="-57.696780"><ele>120.509</ele><time>2026-05-05T10:24:27.064Z</time></trkpt><trkpt lat="-16.094687" lon="-57.696732"><ele>120.549</ele><time>2026-05-05T10:24:30.067Z</time></trkpt><trkpt lat="-16.094655" lon="-57.696698"><ele>120.553</ele><time>2026-05-05T10:24:32.066Z</time></trkpt><trkpt lat="-16.093903" lon="-57.675977"><ele>130.949</ele><time>2026-05-05T10:47:00.423Z</time></trkpt></trkseg></trk></gpx>